{
  "norad_id": 37951,
  "name": "LUCH-5A",
  "history": [
    {
      "epoch": "2026-03-28T19:00:03.552192",
      "apogee_km": 35800.77688043779,
      "perigee_km": 35773.51702436256,
      "latitude_deg": -8.132222900325537,
      "longitude_deg": -148.89605312002823,
      "semi_major_axis_km": 42165.283952400176,
      "eccentricity": 0.00032325,
      "inclination_deg": 8.551,
      "raan_deg": 74.9754,
      "arg_perigee_deg": 271.7532,
      "mean_anomaly_deg": 291.4452,
      "mean_motion_rev_day": 1.00269816
    }
  ]
}